OBJECT_NAME,OBJECT_ID,EPOCH,MEAN_MOTION,ECCENTRICITY,INCLINATION,RA_OF_ASC_NODE,ARG_OF_PERICENTER,MEAN_ANOMALY,EPHEMERIS_TYPE,CLASSIFICATION_TYPE,NORAD_CAT_ID,ELEMENT_SET_NO,REV_AT_EPOCH,BSTAR,MEAN_MOTION_DOT,MEAN_MOTION_DDOT
STARLINK-2473,2021-027AR,2026-06-10T22:35:45.053088,15.31728497,.00010597,53.1603,79.0579,83.0867,277.0255,0,U,48131,999,28696,.30194541E-3,.9024E-4,0
STARLINK-2474,2021-027AS,2026-06-11T01:42:15.798816,15.31716433,.00016026,53.1599,93.3811,94.2641,265.8544,0,U,48132,999,28677,.20504712E-3,.6006E-4,0
STARLINK-2475,2021-027AT,2026-06-11T02:08:09.117024,15.31714590,.00013872,53.1618,90.9134,105.8614,254.2540,0,U,48133,999,28682,.86365522E-4,.2317E-4,0
STARLINK-2476,2021-027AU,2026-06-11T03:01:50.397600,15.31725525,.00013494,53.1583,90.5910,107.1922,252.9228,0,U,48134,999,28682,.49017927E-3,.14888E-3,0
STARLINK-2478,2021-027AV,2026-06-11T01:49:00.071328,15.31715806,.00012868,53.1593,93.5396,90.0570,270.0579,0,U,48135,999,28678,.13631015E-3,.3869E-4,0
STARLINK-2479,2021-027AW,2026-06-11T02:41:44.448864,15.31720565,.00010318,53.1583,90.9501,91.0760,269.0359,0,U,48136,999,28682,.23096294E-3,.6813E-4,0
STARLINK-2480,2021-027AX,2026-06-11T01:44:38.241312,15.31721860,.00010747,53.1598,80.9405,93.7898,266.3226,0,U,48137,999,28694,.27075684E-3,.8052E-4,0
STARLINK-2481,2021-027AY,2026-06-11T03:02:47.441472,15.31716368,.00014532,53.1609,93.0962,99.5787,260.5379,0,U,48138,999,28679,.16814717E-3,.4859E-4,0
STARLINK-2482,2021-027AZ,2026-06-11T02:09:58.658400,15.31733555,.00013222,53.1598,78.2465,80.1188,279.9962,0,U,48139,999,28699,.16480443E-3,.4757E-4,0
STARLINK-2483,2021-027BA,2026-06-11T01:41:22.307712,15.31716408,.00013147,53.1590,91.2796,91.5399,268.5753,0,U,48140,999,28681,.22281859E-3,.6559E-4,0
STARLINK-2485,2021-027BC,2026-06-11T01:16:22.837440,15.31714657,.00013259,53.1604,78.7357,102.0878,258.0272,0,U,48142,999,28698,.1261464E-3,.3553E-4,0
STARLINK-2486,2021-027BD,2026-06-10T22:23:37.372416,15.38920538,.00040622,53.1577,25.2527,108.1773,251.9674,0,U,48143,999,28772,.12578167E-2,.491E-3,0
STARLINK-2487,2021-027BE,2026-06-10T22:35:11.843520,15.31706285,.00013124,53.1599,78.7085,99.4447,260.6703,0,U,48144,999,28696,.25913608E-3,.7686E-4,0
STARLINK-2491,2021-027BJ,2026-06-11T01:54:47.523744,15.31705088,.00012085,53.1603,91.2770,81.2189,278.8950,0,U,48148,999,28680,.11932552E-4,.5E-7,0
STARLINK-2492,2021-027BK,2026-06-11T00:42:47.742336,15.31711889,.00013862,53.1612,78.7451,94.9319,265.1840,0,U,48149,999,28697,.1063776E-3,.2938E-4,0
STARLINK-2493,2021-027BL,2026-06-11T01:56:35.452896,15.31707394,.00015171,53.1620,78.3116,111.1831,248.9333,0,U,48150,999,28699,.75098057E-4,.1966E-4,0
STARLINK-2503,2021-027BM,2026-06-11T01:50:20.483808,15.31714323,.00014635,53.1607,78.2447,89.9419,270.1750,0,U,48151,999,28699,.12601949E-3,.3549E-4,0
STARLINK-2567,2021-036A,2026-06-11T04:21:42.718752,15.31707450,.00011554,53.1589,336.0191,87.5807,272.5326,0,U,48276,999,28306,.14931241E-3,.4272E-4,0
STARLINK-2569,2021-036B,2026-06-11T02:29:14.853696,15.31324258,.00019082,53.1277,298.4558,177.3776,182.7236,0,U,48277,999,28358,.12668677E-2,.38694E-3,0
STARLINK-2543,2021-036C,2026-06-11T03:31:56.390880,15.31680296,.00010463,53.1621,309.6394,74.9898,285.1219,0,U,48278,999,28343,.16382391E-3,.4719E-4,0
STARLINK-2565,2021-036E,2026-06-10T21:43:59.558016,15.31700654,.00010834,53.1616,27.5639,81.3047,278.8077,0,U,48280,999,28231,-.13812954E-3,-.4649E-4,0
STARLINK-2558,2021-036G,2026-06-10T20:20:50.586144,15.31718080,.00010707,53.1603,2.0810,94.9834,265.1290,0,U,48282,999,28268,.11739036E-3,.3281E-4,0
STARLINK-2516,2021-036H,2026-06-11T05:31:10.554528,15.31704132,.00010162,53.1594,0.2367,96.7088,263.4029,0,U,48283,999,28274,-.21034235E-3,-.6887E-4,0
STARLINK-2564,2021-036J,2026-06-11T06:38:23.620992,15.31707205,.00013319,53.1610,0.5326,90.5679,269.5475,0,U,48284,999,28273,.35300107E-4,.731E-5,0
STARLINK-2547,2021-036L,2026-06-10T20:00:42.680448,15.31715219,.00011977,53.1606,2.1572,86.6714,273.4424,0,U,48286,999,28267,.60843236E-4,.1524E-4,0
STARLINK-2566,2021-036M,2026-06-10T20:55:20.841600,15.31715648,.00011921,53.1597,4.3436,91.2538,268.8600,0,U,48287,999,28264,.23890608E-3,.7059E-4,0
STARLINK-2545,2021-036P,2026-06-10T20:20:24.977184,15.31718239,.00011024,53.1602,2.3306,94.7208,265.3920,0,U,48289,999,28267,.15841651E-3,.4557E-4,0
STARLINK-2555,2021-036R,2026-06-11T05:58:58.825344,15.31711469,.00011003,53.1598,2.5885,97.0032,263.1094,0,U,48291,999,28270,.43082959E-4,.973E-5,0
STARLINK-2542,2021-036S,2026-06-10T20:34:13.656864,15.31716445,.00011836,53.1601,1.8509,102.3346,257.7788,0,U,48292,999,28268,.13385582E-3,.3793E-4,0
STARLINK-2550,2021-036T,2026-06-10T20:54:23.759712,15.31718614,.00013061,53.1611,1.9440,89.6633,270.4518,0,U,48293,999,28268,.17195029E-3,.4977E-4,0
