1 48131U 21027AR 26161.94149367 .00009024 00000+0 30195-3 0 9993 
2 48131 53.1603 79.0579 0001059 83.0867 277.0255 15.31728497286967 
1 48132U 21027AS 26162.07101619 .00006006 00000+0 20505-3 0 9998 
2 48132 53.1599 93.3811 0001602 94.2641 265.8544 15.31716433286770 
1 48133U 21027AT 26162.08899441 .00002317 00000+0 86366-4 0 9996 
2 48133 53.1618 90.9134 0001387 105.8614 254.2540 15.31714590286829 
1 48134U 21027AU 26162.12627775 .00014888 00000+0 49018-3 0 9999 
2 48134 53.1583 90.5910 0001349 107.1922 252.9228 15.31725525286822 
1 48135U 21027AV 26162.07569527 .00003869 00000+0 13631-3 0 9993 
2 48135 53.1593 93.5396 0001286 90.0570 270.0579 15.31715806286780 
1 48136U 21027AW 26162.11232001 .00006813 00000+0 23096-3 0 9991 
2 48136 53.1583 90.9501 0001031 91.0760 269.0359 15.31720565286826 
1 48137U 21027AX 26162.07266483 .00008052 00000+0 27076-3 0 9997 
2 48137 53.1598 80.9405 0001074 93.7898 266.3226 15.31721860286948 
1 48138U 21027AY 26162.12693798 .00004859 00000+0 16815-3 0 9997 
2 48138 53.1609 93.0962 0001453 99.5787 260.5379 15.31716368286792 
1 48139U 21027AZ 26162.09026225 .00004757 00000+0 16480-3 0 9994 
2 48139 53.1598 78.2465 0001322 80.1188 279.9962 15.31733555286990 
1 48140U 21027BA 26162.07039708 .00006559 00000+0 22282-3 0 9993 
2 48140 53.1590 91.2796 0001314 91.5399 268.5753 15.31716408286818 
1 48142U 21027BC 26162.05304210 .00003553 00000+0 12615-3 0 9996 
2 48142 53.1604 78.7357 0001325 102.0878 258.0272 15.31714657286983 
1 48143U 21027BD 26161.93307144 .00049100 00000+0 12578-2 0 9997 
2 48143 53.1577 25.2527 0004062 108.1773 251.9674 15.38920538287726 
1 48144U 21027BE 26161.94110930 .00007686 00000+0 25914-3 0 9996 
2 48144 53.1599 78.7085 0001312 99.4447 260.6703 15.31706285286967 
1 48148U 21027BJ 26162.07971671 .00000005 00000+0 11933-4 0 9997 
2 48148 53.1603 91.2770 0001208 81.2189 278.8950 15.31705088286802 
1 48149U 21027BK 26162.02971924 .00002938 00000+0 10638-3 0 9991 
2 48149 53.1612 78.7451 0001386 94.9319 265.1840 15.31711889286973 
1 48150U 21027BL 26162.08096589 .00001966 00000+0 75098-4 0 9996 
2 48150 53.1620 78.3116 0001517 111.1831 248.9333 15.31707394286999 
1 48151U 21027BM 26162.07662597 .00003549 00000+0 12602-3 0 9994 
2 48151 53.1607 78.2447 0001463 89.9419 270.1750 15.31714323286995 
1 48276U 21036A 26162.18174443 .00004272 00000+0 14931-3 0 9993 
2 48276 53.1589 336.0191 0001155 87.5807 272.5326 15.31707450283069 
1 48277U 21036B 26162.10364414 .00038694 00000+0 12669-2 0 9995 
2 48277 53.1277 298.4558 0001908 177.3776 182.7236 15.31324258283581 
1 48278U 21036C 26162.14718045 .00004719 00000+0 16382-3 0 9991 
2 48278 53.1621 309.6394 0001046 74.9898 285.1219 15.31680296283438 
1 48280U 21036E 26161.90555044 -.00004649 00000+0 -13813-3 0 9995 
2 48280 53.1616 27.5639 0001083 81.3047 278.8077 15.31700654282310 
1 48282U 21036G 26161.84780771 .00003281 00000+0 11739-3 0 9991 
2 48282 53.1603 2.0810 0001070 94.9834 265.1290 15.31718080282685 
1 48283U 21036H 26162.22998327 -.00006887 00000+0 -21034-3 0 9999 
2 48283 53.1594 0.2367 0001016 96.7088 263.4029 15.31704132282744 
1 48284U 21036J 26162.27666228 .00000731 00000+0 35300-4 0 9999 
2 48284 53.1610 0.5326 0001331 90.5679 269.5475 15.31707205282735 
1 48286U 21036L 26161.83382732 .00001524 00000+0 60843-4 0 9998 
2 48286 53.1606 2.1572 0001197 86.6714 273.4424 15.31715219282674 
1 48287U 21036M 26161.87176900 .00007059 00000+0 23891-3 0 9991 
2 48287 53.1597 4.3436 0001192 91.2538 268.8600 15.31715648282645 
1 48289U 21036P 26161.84751131 .00004557 00000+0 15842-3 0 9992 
2 48289 53.1602 2.3306 0001102 94.7208 265.3920 15.31718239282670 
1 48291U 21036R 26162.24929196 .00000973 00000+0 43083-4 0 9995 
2 48291 53.1598 2.5885 0001100 97.0032 263.1094 15.31711469282700 
1 48292U 21036S 26161.85710251 .00003793 00000+0 13386-3 0 9997 
2 48292 53.1601 1.8509 0001183 102.3346 257.7788 15.31716445282685 
1 48293U 21036T 26161.87110833 .00004977 00000+0 17195-3 0 9997 
2 48293 53.1611 1.9440 0001306 89.6633 270.4518 15.31718614282688 
